IRIDIUM 39              
1 25042U 97069D   25129.73831485  .00000746  00000+0  19014-3 0  9996
2 25042  86.3946 227.6025 0020026  77.8791 282.4655 14.49176187443656
IRIDIUM 38              
1 25043U 97069E   25129.41271399  .00000646  00000+0  20672-3 0  9995
2 25043  86.3956 249.4606 0001737 152.4896 207.6394 14.38085356440649
IRIDIUM 42              
1 25077U 97077A   25129.78932710  .00000505  00000+0  16602-3 0  9994
2 25077  86.3952 255.4272 0001590 108.8989 251.2380 14.36322655435685
IRIDIUM 44              
1 25078U 97077B   25129.36104363  .00000540  00000+0  16464-3 0  9999
2 25078  86.3976 237.6284 0003524 123.1221 237.0317 14.40211687438148
IRIDIUM 45              
1 25104U 97082A   25129.78274062  .00019305  00000+0  70857-3 0  9990
2 25104  86.3588  66.5167 0123207 114.7553 246.6571 15.20845458446450
IRIDIUM 24              
1 25105U 97082B   25129.80034869  .00000679  00000+0  20084-3 0  9994
2 25105  86.3875  96.5837 0010486 193.8607 166.2307 14.42060410437936
IRIDIUM 51              
1 25262U 98018A   25129.26598151  .00052116  00000+0  12351-2 0  9997
2 25262  86.3836  75.0631 0094336  41.9513 318.8915 15.36932526441043
IRIDIUM 57              
1 25273U 98019B   25129.63464545  .00000399  00000+0  13083-3 0  9990
2 25273  86.3980 161.4111 0002267  93.5949 266.5507 14.35868151419463
